OBJECT_NAME,OBJECT_ID,EPOCH,MEAN_MOTION,ECCENTRICITY,INCLINATION,RA_OF_ASC_NODE,ARG_OF_PERICENTER,MEAN_ANOMALY,EPHEMERIS_TYPE,CLASSIFICATION_TYPE,NORAD_CAT_ID,ELEMENT_SET_NO,REV_AT_EPOCH,BSTAR,MEAN_MOTION_DOT,MEAN_MOTION_DDOT,SEMIMAJOR_AXIS,SATELLITE_TYPE
IRIDIUM 161,2018-047C,2024-12-31T13:40:04.000800,14.43286517,0.0002253,86.4494,311.044,86.2841,273.8618,0,U,43478,999,34831,0.00037261,1.274e-05,0.0,7125.797420905358,Iridium Next
IRIDIUM 152,2018-047D,2024-12-31T16:45:30.121056,14.342193,0.0002093,86.397,310.8497,82.6003,277.5431,0,U,43479,999,34616,0.00014574,4.28e-06,0.0,7155.798998703793,Iridium Next
IRIDIUM 147,2018-047E,2024-12-31T21:56:02.045184,14.34221231,0.0002371,86.3974,310.7555,77.2887,282.8574,0,U,43480,999,34619,0.00022664,6.55e-06,0.0,7155.792575775136,Iridium Next
IRIDIUM 110,2018-047F,2025-01-01T03:06:34.221600,14.3421789,0.000205,86.3975,310.7433,72.9316,287.2104,0,U,43481,999,34621,6.0697e-05,1.9e-06,0.0,7155.803688681518,Iridium Next
IRIDIUM 162,2018-047G,2024-12-31T13:30:58.623264,14.43290009,0.0001971,86.4495,310.9441,79.5079,280.6344,0,U,43482,999,34830,0.00040058,1.368e-05,0.0,7125.785927121725,Iridium Next
IRIDIUM 160,2018-061A,2024-12-31T19:06:42.299424,14.34217436,0.0002486,86.3942,279.242,82.1639,277.9839,0,U,43569,999,33706,0.00033825,9.67e-06,0.0,7155.805198789457,Iridium Next
IRIDIUM 166,2018-061B,2024-12-31T14:41:50.413056,14.34218072,0.000189,86.3966,279.2769,90.962,269.1792,0,U,43570,999,33706,4.7626e-05,1.53e-06,0.0,7155.803083308076,Iridium Next
IRIDIUM 158,2018-061C,2024-12-31T15:36:38.321856,14.34218875,0.0001853,86.3967,279.2706,79.4249,280.7156,0,U,43571,999,33703,0.00014311,4.21e-06,0.0,7155.800412348753,Iridium Next
IRIDIUM 165,2018-061D,2024-12-31T11:11:46.453632,14.34217168,0.0002146,86.3963,279.3836,84.3289,275.8152,0,U,43572,999,33703,-3.0373e-05,-6.5e-07,0.0,7155.806090219186,Iridium Next
IRIDIUM 155,2018-061E,2024-12-31T15:18:21.218976,14.34226868,0.0001765,86.3964,279.2076,86.6897,273.4501,0,U,43573,999,33702,0.00035899,1.025e-05,0.0,7155.773825961759,Iridium Next
IRIDIUM 154,2018-061F,2024-12-31T14:50:58.138944,14.34221268,0.0002198,86.3969,279.3227,83.1999,276.9447,0,U,43574,999,33707,0.00034613,9.89e-06,0.0,7155.792452705179,Iridium Next
IRIDIUM 163,2018-061G,2024-12-31T19:24:58.350816,14.34219521,0.0001994,86.3964,279.1754,81.0444,279.0977,0,U,43575,999,33707,0.00014506,4.26e-06,0.0,7155.798263608691,Iridium Next
IRIDIUM 156,2018-061H,2024-12-31T18:48:26.191008,14.34218975,0.0001797,86.3964,279.1926,90.4304,269.7097,0,U,43576,999,33706,0.0002207,6.38e-06,0.0,7155.800079726346,Iridium Next
IRIDIUM 164,2018-061J,2024-12-31T15:00:05.794848,14.34223543,0.0002316,86.3966,279.2908,87.4448,272.7013,0,U,43577,999,33708,0.00041423,1.18e-05,0.0,7155.784885576046,Iridium Next
IRIDIUM 159,2018-061K,2024-12-31T15:54:54.217728,14.3421973,0.0002226,86.3965,279.2229,82.7294,277.4155,0,U,43578,999,33705,0.00026652,7.66e-06,0.0,7155.797568428427,Iridium Next
IRIDIUM 180,2019-002A,2024-12-31T20:55:34.826304,14.3421782,0.0001831,86.398,216.0163,86.1804,273.9601,0,U,43922,999,31269,1.1084e-06,2.3e-07,0.0,7155.803921517491,Iridium Next
IRIDIUM 176,2019-002B,2024-12-31T07:00:43.557120,14.72261868,0.0002752,86.6098,216.2648,67.2837,292.8671,0,U,43923,999,32084,0.0004777,3.038e-05,0.0,7031.993577302452,Iridium Next
IRIDIUM 168,2019-002C,2024-12-31T20:46:26.521536,14.34213179,0.0002082,86.3981,216.0814,84.6077,275.5356,0,U,43924,999,31267,0.0002626,7.55e-06,0.0,7155.81935858481,Iridium Next
IRIDIUM 173,2019-002D,2024-12-31T20:28:10.778592,14.34216989,0.0001903,86.3976,215.9975,86.1618,273.9795,0,U,43925,999,31265,2.8855e-05,1.01e-06,0.0,7155.8066856145715,Iridium Next
IRIDIUM 169,2019-002E,2024-12-31T09:15:05.143680,14.38613378,8.35e-05,86.4222,247.8025,30.0125,330.1121,0,U,43926,999,31362,0.00033935,1.058e-05,0.0,7141.220531330171,Iridium Next
IRIDIUM 172,2019-002F,2024-12-31T23:39:58.694400,14.34219355,0.0002029,86.3974,215.9481,84.7214,275.4213,0,U,43927,999,31268,0.00017911,5.21e-06,0.0,7155.798815761556,Iridium Next
IRIDIUM 175,2019-002G,2024-12-31T10:08:47.866272,14.72260587,0.000132,86.1524,178.2669,135.4854,224.6468,0,U,43928,999,32085,0.00018774,1.209e-05,0.0,7031.997656282556,Iridium Next
IRIDIUM 171,2019-002H,2024-12-31T19:51:38.900448,14.34217626,0.0002009,86.3987,216.2614,98.8541,261.2882,0,U,43929,999,31265,-1.1782e-06,1.6e-07,0.0,7155.804566805861,Iridium Next
IRIDIUM 170,2019-002J,2024-12-31T20:12:38.056896,14.72255648,0.0002366,86.6098,216.0406,79.8137,280.3347,0,U,43930,999,32093,0.00052577,3.341e-05,0.0,7032.0133831784715,Iridium Next
IRIDIUM 167,2019-002K,2025-01-01T02:24:22.822560,14.34217884,0.000176,86.3974,215.9181,98.8592,261.2803,0,U,43931,999,31269,0.00031362,8.98e-06,0.0,7155.803708638886,Iridium Next
IRIDIUM 181,2023-068S,2024-12-31T15:49:22.034784,14.43579628,0.0002435,86.6868,278.8545,92.8794,267.2686,0,U,56726,999,8562,0.00040708,1.398e-05,0.0,7124.832818627708,Iridium Next
IRIDIUM 177,2023-068T,2024-12-31T13:18:13.883040,14.80224753,0.000174,86.1977,221.6352,90.025,270.117,0,U,56727,999,8757,0.00055571,4.249e-05,0.0,7006.751788527148,Iridium Next
